CCSDS_OMM_VERS = 2.0
CREATION_DATE  = 
ORIGINATOR     = 

OBJECT_NAME    = INTERCOSMOS 25
OBJECT_ID      = 1991-086A
CENTER_NAME    = EARTH
REF_FRAME      = TEME
TIME_SYSTEM    = UTC
MEAN_ELEMENT_THEORY = SGP/SGP4

EPOCH          = 2026-01-26T07:15:17.125056
MEAN_MOTION    = 12.11882416
ECCENTRICITY   = .14862148
INCLINATION    = 82.6090
RA_OF_ASC_NODE = 335.6232
ARG_OF_PERICENTER = 208.2740
MEAN_ANOMALY   = 142.9281

EPHEMERIS_TYPE = 0
CLASSIFICATION_TYPE = U
NORAD_CAT_ID   = 21819
ELEMENT_SET_NO = 999
REV_AT_EPOCH   = 49155
BSTAR          = .39426088E-3
MEAN_MOTION_DOT = .1999E-4
MEAN_MOTION_DDOT = 0

CCSDS_OMM_VERS = 2.0
CREATION_DATE  = 
ORIGINATOR     = 

OBJECT_NAME    = SL-8 R/B
OBJECT_ID      = 1992-008B
CENTER_NAME    = EARTH
REF_FRAME      = TEME
TIME_SYSTEM    = UTC
MEAN_ELEMENT_THEORY = SGP/SGP4

EPOCH          = 2026-01-26T04:36:32.695776
MEAN_MOTION    = 13.75968356
ECCENTRICITY   = .00333372
INCLINATION    = 82.9285
RA_OF_ASC_NODE = 299.3892
ARG_OF_PERICENTER = 253.0471
MEAN_ANOMALY   = 216.1037

EPHEMERIS_TYPE = 0
CLASSIFICATION_TYPE = U
NORAD_CAT_ID   = 21876
ELEMENT_SET_NO = 999
REV_AT_EPOCH   = 70357
BSTAR          = .86889872E-4
MEAN_MOTION_DOT = .99E-6
MEAN_MOTION_DDOT = 0

CCSDS_OMM_VERS = 2.0
CREATION_DATE  = 
ORIGINATOR     = 

OBJECT_NAME    = SL-8 R/B
OBJECT_ID      = 1992-020B
CENTER_NAME    = EARTH
REF_FRAME      = TEME
TIME_SYSTEM    = UTC
MEAN_ELEMENT_THEORY = SGP/SGP4

EPOCH          = 2026-01-26T05:38:33.797760
MEAN_MOTION    = 13.75541811
ECCENTRICITY   = .00300114
INCLINATION    = 82.9308
RA_OF_ASC_NODE = 185.2751
ARG_OF_PERICENTER = 57.8450
MEAN_ANOMALY   = 115.6275

EPHEMERIS_TYPE = 0
CLASSIFICATION_TYPE = U
NORAD_CAT_ID   = 21938
ELEMENT_SET_NO = 999
REV_AT_EPOCH   = 69529
BSTAR          = .18753442E-3
MEAN_MOTION_DOT = .196E-5
MEAN_MOTION_DDOT = 0

CCSDS_OMM_VERS = 2.0
CREATION_DATE  = 
ORIGINATOR     = 

OBJECT_NAME    = USA 81
OBJECT_ID      = 1992-023A
CENTER_NAME    = EARTH
REF_FRAME      = TEME
TIME_SYSTEM    = UTC
MEAN_ELEMENT_THEORY = SGP/SGP4

EPOCH          = 2026-01-26T07:47:41.083584
MEAN_MOTION    = 14.32349886
ECCENTRICITY   = .00022105
INCLINATION    = 85.0113
RA_OF_ASC_NODE = 155.8665
ARG_OF_PERICENTER = 113.4991
MEAN_ANOMALY   = 246.6434

EPHEMERIS_TYPE = 0
CLASSIFICATION_TYPE = U
NORAD_CAT_ID   = 21949
ELEMENT_SET_NO = 999
REV_AT_EPOCH   = 8872
BSTAR          = .13162589E-3
MEAN_MOTION_DOT = .375E-5
MEAN_MOTION_DDOT = 0

CCSDS_OMM_VERS = 2.0
CREATION_DATE  = 
ORIGINATOR     = 

OBJECT_NAME    = COSMOS 2219
OBJECT_ID      = 1992-076A
CENTER_NAME    = EARTH
REF_FRAME      = TEME
TIME_SYSTEM    = UTC
MEAN_ELEMENT_THEORY = SGP/SGP4

EPOCH          = 2026-01-26T06:57:43.326720
MEAN_MOTION    = 14.14080590
ECCENTRICITY   = .00207948
INCLINATION    = 71.0610
RA_OF_ASC_NODE = 106.7081
ARG_OF_PERICENTER = 265.9427
MEAN_ANOMALY   = 93.9319

EPHEMERIS_TYPE = 0
CLASSIFICATION_TYPE = U
NORAD_CAT_ID   = 22219
ELEMENT_SET_NO = 999
REV_AT_EPOCH   = 71238
BSTAR          = -.76069291E-4
MEAN_MOTION_DOT = -.192E-5
MEAN_MOTION_DDOT = 0

CCSDS_OMM_VERS = 2.0
CREATION_DATE  = 
ORIGINATOR     = 

OBJECT_NAME    = SL-16 R/B
OBJECT_ID      = 1992-076B
CENTER_NAME    = EARTH
REF_FRAME      = TEME
TIME_SYSTEM    = UTC
MEAN_ELEMENT_THEORY = SGP/SGP4

EPOCH          = 2026-01-26T03:13:01.464672
MEAN_MOTION    = 14.16850367
ECCENTRICITY   = .00123206
INCLINATION    = 70.9995
RA_OF_ASC_NODE = 278.0179
ARG_OF_PERICENTER = 170.2979
MEAN_ANOMALY   = 297.8614

EPHEMERIS_TYPE = 0
CLASSIFICATION_TYPE = U
NORAD_CAT_ID   = 22220
ELEMENT_SET_NO = 999
REV_AT_EPOCH   = 71580
BSTAR          = -.21413058E-4
MEAN_MOTION_DOT = -.91E-6
MEAN_MOTION_DDOT = 0

CCSDS_OMM_VERS = 2.0
CREATION_DATE  = 
ORIGINATOR     = 

OBJECT_NAME    = COSMOS 2221
OBJECT_ID      = 1992-080A
CENTER_NAME    = EARTH
REF_FRAME      = TEME
TIME_SYSTEM    = UTC
MEAN_ELEMENT_THEORY = SGP/SGP4

EPOCH          = 2026-01-26T07:13:49.480896
MEAN_MOTION    = 14.96006128
ECCENTRICITY   = .00140202
INCLINATION    = 82.5063
RA_OF_ASC_NODE = 319.6705
ARG_OF_PERICENTER = 342.2439
MEAN_ANOMALY   = 17.8291

EPHEMERIS_TYPE = 0
CLASSIFICATION_TYPE = U
NORAD_CAT_ID   = 22236
ELEMENT_SET_NO = 999
REV_AT_EPOCH   = 77445
BSTAR          = .32354552E-3
MEAN_MOTION_DOT = .366E-4
MEAN_MOTION_DDOT = 0

CCSDS_OMM_VERS = 2.0
CREATION_DATE  = 
ORIGINATOR     = 

OBJECT_NAME    = SL-16 R/B
OBJECT_ID      = 1992-093B
CENTER_NAME    = EARTH
REF_FRAME      = TEME
TIME_SYSTEM    = UTC
MEAN_ELEMENT_THEORY = SGP/SGP4

EPOCH          = 2026-01-26T06:23:59.585568
MEAN_MOTION    = 14.15443616
ECCENTRICITY   = .00045536
INCLINATION    = 71.0220
RA_OF_ASC_NODE = 93.3269
ARG_OF_PERICENTER = 339.7460
MEAN_ANOMALY   = 20.3481

EPHEMERIS_TYPE = 0
CLASSIFICATION_TYPE = U
NORAD_CAT_ID   = 22285
ELEMENT_SET_NO = 999
REV_AT_EPOCH   = 70715
BSTAR          = .26038368E-4
MEAN_MOTION_DOT = .3E-7
MEAN_MOTION_DDOT = 0

CCSDS_OMM_VERS = 2.0
CREATION_DATE  = 
ORIGINATOR     = 

OBJECT_NAME    = COSMOS 2228
OBJECT_ID      = 1992-094A
CENTER_NAME    = EARTH
REF_FRAME      = TEME
TIME_SYSTEM    = UTC
MEAN_ELEMENT_THEORY = SGP/SGP4

EPOCH          = 2026-01-26T06:40:58.242432
MEAN_MOTION    = 14.96984419
ECCENTRICITY   = .00196614
INCLINATION    = 82.5175
RA_OF_ASC_NODE = 277.9182
ARG_OF_PERICENTER = 84.7165
MEAN_ANOMALY   = 275.6300

EPHEMERIS_TYPE = 0
CLASSIFICATION_TYPE = U
NORAD_CAT_ID   = 22286
ELEMENT_SET_NO = 999
REV_AT_EPOCH   = 76971
BSTAR          = .25230556E-3
MEAN_MOTION_DOT = .2938E-4
MEAN_MOTION_DDOT = 0

CCSDS_OMM_VERS = 2.0
CREATION_DATE  = 
ORIGINATOR     = 

OBJECT_NAME    = SL-16 R/B
OBJECT_ID      = 1993-016B
CENTER_NAME    = EARTH
REF_FRAME      = TEME
TIME_SYSTEM    = UTC
MEAN_ELEMENT_THEORY = SGP/SGP4

EPOCH          = 2026-01-26T03:52:34.019904
MEAN_MOTION    = 14.15298696
ECCENTRICITY   = .00093653
INCLINATION    = 71.0088
RA_OF_ASC_NODE = 304.5060
ARG_OF_PERICENTER = 16.2264
MEAN_ANOMALY   = 343.9157

EPHEMERIS_TYPE = 0
CLASSIFICATION_TYPE = U
NORAD_CAT_ID   = 22566
ELEMENT_SET_NO = 999
REV_AT_EPOCH   = 69615
BSTAR          = .22575788E-3
MEAN_MOTION_DOT = .392E-5
MEAN_MOTION_DDOT = 0

CCSDS_OMM_VERS = 2.0
CREATION_DATE  = 
ORIGINATOR     = 

OBJECT_NAME    = COSMOS 2242
OBJECT_ID      = 1993-024A
CENTER_NAME    = EARTH
REF_FRAME      = TEME
TIME_SYSTEM    = UTC
MEAN_ELEMENT_THEORY = SGP/SGP4

EPOCH          = 2026-01-26T04:13:15.665664
MEAN_MOTION    = 14.96348392
ECCENTRICITY   = .00180989
INCLINATION    = 82.5205
RA_OF_ASC_NODE = 307.3719
ARG_OF_PERICENTER = 87.8359
MEAN_ANOMALY   = 272.4935

EPHEMERIS_TYPE = 0
CLASSIFICATION_TYPE = U
NORAD_CAT_ID   = 22626
ELEMENT_SET_NO = 999
REV_AT_EPOCH   = 77403
BSTAR          = .3293047E-3
MEAN_MOTION_DOT = .3763E-4
MEAN_MOTION_DDOT = 0

CCSDS_OMM_VERS = 2.0
CREATION_DATE  = 
ORIGINATOR     = 

OBJECT_NAME    = SL-16 R/B
OBJECT_ID      = 1993-059B
CENTER_NAME    = EARTH
REF_FRAME      = TEME
TIME_SYSTEM    = UTC
MEAN_ELEMENT_THEORY = SGP/SGP4

EPOCH          = 2026-01-26T06:27:41.524704
MEAN_MOTION    = 14.17223568
ECCENTRICITY   = .00195746
INCLINATION    = 70.9905
RA_OF_ASC_NODE = 100.5873
ARG_OF_PERICENTER = 274.2465
MEAN_ANOMALY   = 85.6422

EPHEMERIS_TYPE = 0
CLASSIFICATION_TYPE = U
NORAD_CAT_ID   = 22803
ELEMENT_SET_NO = 999
REV_AT_EPOCH   = 67352
BSTAR          = -.55282703E-4
MEAN_MOTION_DOT = -.16E-5
MEAN_MOTION_DDOT = 0

CCSDS_OMM_VERS = 2.0
CREATION_DATE  = 
ORIGINATOR     = 

OBJECT_NAME    = ARIANE 40 R/B
OBJECT_ID      = 1993-061H
CENTER_NAME    = EARTH
REF_FRAME      = TEME
TIME_SYSTEM    = UTC
MEAN_ELEMENT_THEORY = SGP/SGP4

EPOCH          = 2026-01-26T04:06:56.016288
MEAN_MOTION    = 14.32836393
ECCENTRICITY   = .00115191
INCLINATION    = 98.5006
RA_OF_ASC_NODE = 95.8791
ARG_OF_PERICENTER = 54.4000
MEAN_ANOMALY   = 305.8256

EPHEMERIS_TYPE = 0
CLASSIFICATION_TYPE = U
NORAD_CAT_ID   = 22830
ELEMENT_SET_NO = 999
REV_AT_EPOCH   = 68801
BSTAR          = .17126981E-3
MEAN_MOTION_DOT = .424E-5
MEAN_MOTION_DDOT = 0

CCSDS_OMM_VERS = 2.0
CREATION_DATE  = 
ORIGINATOR     = 

OBJECT_NAME    = COSMOS 2278
OBJECT_ID      = 1994-023A
CENTER_NAME    = EARTH
REF_FRAME      = TEME
TIME_SYSTEM    = UTC
MEAN_ELEMENT_THEORY = SGP/SGP4

EPOCH          = 2026-01-26T02:13:12.124416
MEAN_MOTION    = 14.14367131
ECCENTRICITY   = .00062895
INCLINATION    = 71.0529
RA_OF_ASC_NODE = 264.2194
ARG_OF_PERICENTER = 94.5349
MEAN_ANOMALY   = 265.6493

EPHEMERIS_TYPE = 0
CLASSIFICATION_TYPE = U
NORAD_CAT_ID   = 23087
ELEMENT_SET_NO = 999
REV_AT_EPOCH   = 63878
BSTAR          = -.11037132E-4
MEAN_MOTION_DOT = -.68E-6
MEAN_MOTION_DDOT = 0

CCSDS_OMM_VERS = 2.0
CREATION_DATE  = 
ORIGINATOR     = 

OBJECT_NAME    = SL-16 R/B
OBJECT_ID      = 1994-023B
CENTER_NAME    = EARTH
REF_FRAME      = TEME
TIME_SYSTEM    = UTC
MEAN_ELEMENT_THEORY = SGP/SGP4

EPOCH          = 2026-01-25T17:37:10.125408
MEAN_MOTION    = 14.15006875
ECCENTRICITY   = .00041344
INCLINATION    = 71.0003
RA_OF_ASC_NODE = 161.0973
ARG_OF_PERICENTER = 325.3749
MEAN_ANOMALY   = 34.7104

EPHEMERIS_TYPE = 0
CLASSIFICATION_TYPE = U
NORAD_CAT_ID   = 23088
ELEMENT_SET_NO = 999
REV_AT_EPOCH   = 64001
BSTAR          = -.28222935E-4
MEAN_MOTION_DOT = -.102E-5
MEAN_MOTION_DDOT = 0

